SKYSAT-B                
1 40072U 14037D   24202.21419730  .00002581  00000+0  31531-3 0  9996
2 40072  98.3310 115.4441 0006681  28.7351 331.4229 14.84223970542506
WORLDVIEW-3 (WV-3)      
1 40115U 14048A   24202.21272456  .00002594  00000+0  30885-3 0  9993
2 40115  97.8672 275.0491 0001588  75.5857 284.5534 14.85214489538507
GAOFEN-2                
1 40118U 14049A   24202.18777327  .00002365  00000+0  31746-3 0  9993
2 40118  98.1099 252.3716 0007034 321.7009  38.3702 14.80303472536115
YAOGAN-21               
1 40143U 14053A   24202.20554330  .00013438  00000+0  56507-3 0  9991
2 40143  97.2510 259.1603 0008585  64.1605 296.0517 15.23489299548843
YAOGAN-22               
1 40275U 14063A   24202.09093600 -.00000006  00000+0  10534-3 0  9991
2 40275 100.6677 334.1754 0005942 324.5126  35.5589 13.15484859468154
ASNARO                  
1 40298U 14070A   24202.20656388  .00018213  00000+0  85353-3 0  9994
2 40298  97.4113 283.1459 0006831 114.5924 245.6023 15.19729140538182
HODOYOSHI-1             
1 40299U 14070B   24202.18787101  .00034886  00000+0  61787-3 0  9999
2 40299  97.1369 261.9468 0005571 267.7317  92.3298 15.50188206540231
YAOGAN-23               
1 40305U 14071A   24202.24202819  .00055620  00000+0  86437-3 0  9991
2 40305  97.6880 189.5834 0002644 123.2744 236.8762 15.53768524537521
YAOGAN-24               
1 40310U 14072A   24202.20383982  .00001934  00000+0  28644-3 0  9990
2 40310  98.0593 326.6641 0013133 343.5082  16.5699 14.76248764520910
CBERS 4                 
1 40336U 14079A   24202.22749022  .00000373  00000+0  14443-3 0  9996
2 40336  98.3989 269.6957 0000819 118.3719 241.7550 14.35505190503988
RESURS-P 2              
1 40360U 14087A   24202.21604142  .00040401  00000+0  47075-3 0  9997
2 40360  97.1515 289.0351 0006517 163.3577 196.7897 15.61548311536211
YAOGAN-26               
1 40362U 14088A   24202.18120169  .00018179  00000+0  75581-3 0  9998
2 40362  97.0826 221.3551 0000888 283.6492  76.4647 15.23834537532326
SMAP                    
1 40376U 15003A   24202.19063319  .00001357  00000+0  27138-3 0  9990
2 40376  98.1278 208.1139 0001291  92.0673 268.0677 14.63406054505684
KOMPSAT-3A              
1 40536U 15014A   24202.15384382  .00014014  00000+0  59905-3 0  9993
2 40536  97.6138 152.7938 0003857 147.0472 213.1005 15.22959186514726
SENTINEL-2A             
1 40697U 15028A   24202.17955271  .00000360  00000+0  15381-3 0  9998
2 40697  98.5678 275.9787 0001162  92.5819 267.5497 14.30811215474067
GAOFEN-8                
1 40701U 15030A   24202.20990092  .00019410  00000+0  81063-3 0  9997
2 40701  97.6581 357.5898 0004363 129.7513 230.4109 15.23673137504678
CARBONITE 1 (CBNT-1)    
1 40718U 15032D   24202.15720423  .00003665  00000+0  50463-3 0  9995
2 40718  97.6567  40.7045 0016800  59.7056 300.5816 14.78735207486138
YAOGAN-27               
1 40878U 15040A   24202.21072716  .00000026  00000+0  17864-3 0  9999
2 40878 100.0791 209.4669 0008716  27.7976 332.3602 13.16020651427493
GAOFEN-9 01             
1 40894U 15047A   24202.16052157  .00002358  00000+0  31707-3 0  9997
2 40894  97.7279 255.5928 0027561 260.2169  99.5931 14.79915153476975
LAPAN-A2                
1 40931U 15052B   24180.14795698  .00001574  00000+0  12542-3 0  9997
2 40931   5.9997 274.4192 0013395 238.9714 120.9097 14.77898591473081
YAOGAN-28               
1 41026U 15064A   24202.22373833  .00015126  00000+0  63362-3 0  9997
2 41026  97.2142 351.2790 0004432  86.5292 273.6453 15.23615800484515
YAOGAN-29               
1 41038U 15069A   24202.19843688  .00001130  00000+0  15009-3 0  9996
2 41038  98.0544 216.8019 0002910 110.9719 249.1805 14.81755717467355
KENT RIDGE 1            
1 41167U 15077B   24202.13164807  .00006437  00000+0  29413-3 0  9990
2 41167  14.9823  23.8585 0009695 172.4686 187.5781 15.15416140475025
TELEOS-1                
1 41169U 15077D   24201.87500866  .00027079  00000+0  80522-3 0  9994
2 41169  14.9791 286.6082 0005984 355.1966   4.8299 15.32477410475874
GAOFEN-4                
1 41194U 15083A   24201.89963126 -.00000324  00000+0  00000+0 0  9997
2 41194   0.0200 251.5998 0001323 197.3194 278.8392  1.00269322 31531
JASON-3                 
1 41240U 16002A   24202.21504374 -.00000051  00000+0  44495-4 0  9992
2 41240  66.0413 142.7440 0008301 269.1484  90.8580 12.80929551397877
SENTINEL-3A             
1 41335U 16011A   24202.19563038  .00000338  00000+0  15777-3 0  9993
2 41335  98.6224 268.5254 0001233  87.9208 272.2113 14.26739759438673
ZIYUAN 3-2 (ZY 3-2)     
1 41556U 16033A   24202.17540802  .00012286  00000+0  55413-3 0  9990
2 41556  97.4554 277.2221 0001461  63.1836 296.9549 15.21157330452013
CARTOSAT-2C             
1 41599U 16040A   24202.21918736  .00009062  00000+0  43116-3 0  9990
2 41599  97.4725 260.9321 0013204  48.6024 311.6343 15.19322676447896
SKYSAT-C1               
1 41601U 16040C   24201.87904304  .00014976  00000+0  51946-3 0  9991
2 41601  97.0605 260.6505 0003700 127.0302 233.1278 15.29883622451147
LAPAN-A3                
1 41603U 16040E   24202.23789403  .00005011  00000+0  19986-3 0  9993
2 41603  97.1410 214.4655 0011417 353.9000   6.2097 15.25559845448266
BIROS                   
1 41604U 16040F   24201.58097571  .00015715  00000+0  40327-3 0  9994
2 41604  97.1213 229.1336 0006397 291.1084  68.9479 15.39390169449169
GAOFEN-3                
1 41727U 16049A   24202.25004146  .00000227  00000+0  82192-4 0  9999
2 41727  98.4047 209.4255 0001512  98.9164 261.2197 14.42210743418186
SKYSAT-C4               
1 41771U 16058B   24201.70616997  .00016586  00000+0  49630-3 0  9994
2 41771  97.0074 247.6197 0004445  77.2590 282.9151 15.34601047438208
SKYSAT-C5               
1 41772U 16058C   24201.66831223  .00015596  00000+0  47245-3 0  9991
2 41772  97.1563 255.9554 0000376 238.0372 122.0835 15.34236214436678
SKYSAT-C2               
1 41773U 16058D   24201.86190660  .00015087  00000+0  52355-3 0  9990
2 41773  97.0102 246.3471 0004319  95.7722 264.4012 15.29863229438112
SKYSAT-C3               
1 41774U 16058E   24201.66246347  .00021391  00000+0  50256-3 0  9996
2 41774  97.0089 254.3337 0004578  83.3602 276.8167 15.42016547438648
ALSAT 1B                
1 41785U 16059C   24202.18480237  .00000998  00000+0  17014-3 0  9990
2 41785  97.8170 229.2579 0008348 310.4220  49.6259 14.71046147418058
PATHFINDER 1            
1 41787U 16059E   24202.05447628  .00001613  00000+0  30389-3 0  9990
2 41787  97.8296 222.6397 0028002 266.1929  93.6074 14.65592187417513
SCATSAT 1               
1 41790U 16059H   24202.13992945  .00001611  00000+0  24886-3 0  9993
2 41790  98.2180 245.2102 0051308 328.7738  31.0424 14.73911986413935
GOKTURK 1A              
1 41875U 16073A   24202.21034246  .00001103  00000+0  22530-3 0  9993
2 41875  98.1466  96.1220 0001748  85.7929 274.3473 14.62812676406936
RESOURCESAT-2A          
1 41877U 16074A   24202.22702732  .00000372  00000+0  18919-3 0  9992
2 41877  98.6444 275.0189 0000213 148.7796 211.3395 14.21670908395283
CARTOSAT-2D             
1 41948U 17008A   24201.92332650  .00010418  00000+0  49697-3 0  9992
2 41948  97.4241 260.6429 0006587 161.4074 198.7402 15.19248470411719
SENTINEL-2B             
1 42063U 17013A   24202.21454418  .00000339  00000+0  14595-3 0  9997
2 42063  98.5683 276.0099 0001148  94.7622 265.3692 14.30817594384980
ZHUHAI-1 02 (CAS-4B)    
1 42759U 17034B   24202.03956777  .00022733  00000+0  78447-3 0  9995
2 42759  43.0168  40.7200 0012258 212.7654 147.2440 15.29482765392431
NUSAT-3 (MILANESAT)     
1 42760U 17034C   24201.80018998  .00028298  00000+0  87436-3 0  9995
2 42760  43.0077  26.5062 0015618 237.1401 122.7949 15.32887588392599
ZHUHAI-1 01 (CAS-4A)    
1 42761U 17034D   24202.03846696  .00023027  00000+0  79174-3 0  9991
2 42761  43.0206  39.0533 0011547 225.0500 134.9416 15.29602106392444
CARTOSAT-2E             
1 42767U 17036C   24202.13750624  .00009029  00000+0  43184-3 0  9993
2 42767  97.4363 261.0074 0005056 221.3490 138.7362 15.19206480392311
FORMOSAT-5              
1 42920U 17049A   24202.22485867  .00000577  00000+0  15700-3 0  9994
2 42920  98.2904 279.4755 0011906  71.1172 289.1312 14.51009948365614
SENTINEL-5P             
1 42969U 17064A   24201.82044120  .00000201  00000+0  11614-3 0  9996
2 42969  98.7214 140.5328 0000980  80.8890 279.2397 14.19546790350627
SKYSAT-C11              
1 42987U 17068A   24201.92026056  .00025156  00000+0  60874-3 0  9997
2 42987  97.3616 328.4467 0003321 169.9492 190.1821 15.41103619375689
SKYSAT-C10              
1 42988U 17068B   24201.87552528  .00017739  00000+0  58159-3 0  9991
2 42988  97.3697 327.6502 0005463  77.3405 282.8447 15.31673266375597
SKYSAT-C9               
1 42989U 17068C   24201.87488712  .00017575  00000+0  61205-3 0  9999
2 42989  97.3636 326.0817 0013204 185.8545 174.2543 15.29650596375785
SKYSAT-C8               
1 42990U 17068D   24201.89155211  .00017271  00000+0  60105-3 0  9999
2 42990  97.3725 327.1438 0003151 116.0216 244.1350 15.29754681375545
SKYSAT-C7               
1 42991U 17068E   24201.91466180  .00016988  00000+0  58967-3 0  9990
2 42991  97.3723 327.5919 0000865  33.4406 326.6889 15.29846465375572
SKYSAT-C6               
1 42992U 17068F   24201.59135466  .00016429  00000+0  55099-3 0  9998
2 42992  97.3752 328.3400 0005679 120.6320 239.5482 15.30957770375565
CARTOSAT-2F             
1 43111U 18004A   24202.23614748  .00009946  00000+0  47373-3 0  9992
2 43111  97.4298 261.1930 0001965 183.0015 177.1208 15.19330556361512
GAOFEN-1 02             
1 43259U 18031A   24202.17672015  .00002134  00000+0  31275-3 0  9995
2 43259  97.8193 268.6224 0005392  79.9546 280.2272 14.76584393339841
GAOFEN-1 03             
1 43260U 18031B   24202.15499650  .00002153  00000+0  31554-3 0  9998
2 43260  97.8186 268.5196 0005960 130.1940 229.9793 14.76576069339839
